{"type":"FeatureCollection","features":[{"type":"Feature","properties":{"Avalon Peninsula":"NL-AVALON"},"geometry":{"type":"Polygon","coordinates":[[[-53.988585,47.847423],[-54.008068,47.817096],[-54.002603,47.795076],[-54.03539,47.747332],[-53.983478,47.769373],[-53.980745,47.716091],[-53.96162,47.716091],[-53.972549,47.692189],[-53.945226,47.684832],[-53.958887,47.657235],[-53.945226,47.646191],[-53.945226,47.607522],[-53.904242,47.609364],[-53.939762,47.458102],[-53.923368,47.421143],[-53.797685,47.437778],[-53.937029,47.384158],[-53.917904,47.356401],[-53.896046,47.345295],[-54.005336,47.287874],[-53.997139,47.25265],[-53.96162,47.25265],[-54.0108,47.239666],[-54.182932,46.938307],[-54.193861,46.811302],[-54.114625,46.800081],[-54.062713,46.792599],[-53.953423,46.85803],[-53.745772,47.044535],[-53.652876,47.156126],[-53.663805,47.105939],[-53.625553,47.122674],[-53.559979,47.215546],[-53.590034,47.154269],[-53.538121,47.165415],[-53.546318,47.131968],[-53.428831,47.172845],[-53.592766,47.081758],[-53.554515,47.074316],[-53.721182,46.953229],[-53.622821,46.996106],[-53.627458,46.959361],[-53.622178,46.939087],[-53.604357,46.943593],[-53.590034,46.98306],[-53.567397,46.936382],[-53.52446,46.97374],[-53.52446,46.942038],[-53.603695,46.915916],[-53.603695,46.90285],[-53.674733,46.798211],[-53.650143,46.79634],[-53.54905,46.887914],[-53.467083,46.921515],[-53.557247,46.867371],[-53.628285,46.785117],[-53.622821,46.757047],[-53.652876,46.700863],[-53.603695,46.62586],[-53.54905,46.616478],[-53.508066,46.629613],[-53.363257,46.762662],[-53.398776,46.691493],[-53.360525,46.725217],[-53.349596,46.700863],[-53.303148,46.727089],[-53.286754,46.766405],[-53.289487,46.706484],[-53.193858,46.629613],[-53.106426,46.640869],[-53.046316,46.70461],[-53.005333,46.758919],[-52.950688,46.803822],[-52.898775,46.93271],[-52.876917,47.025914],[-52.860524,47.057566],[-52.90424,47.09478],[-52.86872,47.0985],[-52.852327,47.172845],[-52.800414,47.237811],[-52.778556,47.282314],[-52.666534,47.430385],[-52.62555,47.517183],[-52.682927,47.535633],[-52.65014,47.616732],[-52.666534,47.653554],[-52.726643,47.657235],[-52.688392,47.694028],[-52.699321,47.749169],[-52.762163,47.76019],[-52.79495,47.806087],[-52.849595,47.697706],[-52.860524,47.62594],[-52.915168,47.552231],[-53.095497,47.461797],[-53.133748,47.387857],[-53.144677,47.443322],[-53.191126,47.566981],[-53.172,47.682993],[-53.174732,47.712415],[-53.161071,47.773046],[-53.103694,47.828103],[-53.054513,47.88127],[-53.065442,47.936213],[-52.967081,48.018518],[-52.97801,48.040444],[-52.942491,48.064186],[-52.909704,48.086093],[-52.893311,48.073315],[-52.887846,48.086093],[-52.857791,48.098867],[-52.879649,48.129878],[-52.906972,48.159047],[-52.942491,48.171803],[-53.013529,48.093393],[-53.095497,48.044097],[-53.163803,48.058708],[-53.207519,48.031309],[-53.28129,48.022173],[-53.374186,47.899591],[-53.374186,47.866609],[-53.398776,47.877605],[-53.445225,47.811592],[-53.491673,47.75468],[-53.508066,47.710576],[-53.480744,47.697706],[-53.516263,47.670115],[-53.562711,47.633305],[-53.562711,47.58357],[-53.568176,47.528254],[-53.625553,47.559607],[-53.663805,47.522719],[-53.655608,47.568825],[-53.674733,47.594626],[-53.710253,47.579884],[-53.669269,47.681153],[-53.700525,47.696834],[-53.756701,47.622257],[-53.805881,47.682993],[-53.846865,47.705061],[-53.833204,47.712415],[-53.859871,47.784224],[-53.86027,47.79843],[-53.869481,47.817581],[-53.878532,47.826508],[-53.881976,47.833176],[-53.896073,47.844681],[-53.900479,47.846348],[-53.939762,47.853777],[-53.976731,47.859408],[-53.988585,47.847423]]]}}]}