{"type":"FeatureCollection","features":[{"type":"Feature","properties":{},"geometry":{"type":"Polygon","coordinates":[[[-53.97679,47.859493],[-53.877153,47.845248],[-53.836864,47.792643],[-53.826714,47.784722],[-53.779783,47.761787],[-53.761292,47.781478],[-53.698979,47.894445],[-53.614719,48.038825],[-53.614291,48.055071],[-53.62345,48.055071],[-53.817422,48.001606],[-53.674329,48.055752],[-53.548292,48.093692],[-53.531599,48.116221],[-53.4841,48.156477],[-53.431061,48.197081],[-53.38286,48.284003],[-53.386175,48.317575],[-53.378431,48.339535],[-53.345222,48.352621],[-53.334366,48.365623],[-53.301054,48.369546],[-53.210106,48.350681],[-53.10172,48.410054],[-53.049501,48.461453],[-53.050248,48.507489],[-53.007994,48.544624],[-52.995101,48.5994],[-53.028031,48.649858],[-53.087863,48.701985],[-53.101536,48.700355],[-53.282868,48.527764],[-53.307181,48.556463],[-53.321603,48.579667],[-53.346203,48.600164],[-53.361575,48.616297],[-53.449614,48.62559],[-53.601365,48.529223],[-53.588819,48.589502],[-53.58747,48.6886],[-53.639379,48.749871],[-53.608428,48.791424],[-53.601003,48.839732],[-53.612989,48.892571],[-53.695847,48.89197],[-53.948251,48.839151],[-54.020197,48.814844],[-54.050765,48.813237],[-54.169346,48.777749],[-54.171828,48.767324],[-54.219556,48.764724],[-54.419615,48.12433],[-53.97679,47.859493]]]}}]}