{"type":"FeatureCollection","features":[{"type":"Feature","properties":{"Burin":"NL-Burin"},"geometry":{"type":"Polygon","coordinates":[[[-53.978366,47.859768],[-54.419542,48.12413],[-54.705277,47.67053],[-54.730942,47.663253],[-54.833148,47.622603],[-54.871241,47.605517],[-54.874393,47.60066],[-54.870791,47.593373],[-54.88745,47.583959],[-54.887901,47.572417],[-54.881147,47.570595],[-54.860886,47.589425],[-54.841525,47.593373],[-54.866289,47.566646],[-54.877995,47.558139],[-54.911764,47.539297],[-54.891953,47.537473],[-54.921669,47.523793],[-54.932925,47.529873],[-54.948684,47.532913],[-54.965343,47.524782],[-54.957689,47.517789],[-54.953637,47.514444],[-54.95949,47.50532],[-54.970746,47.507449],[-54.993259,47.506232],[-55.012169,47.501974],[-55.024776,47.503191],[-55.034231,47.498932],[-55.042786,47.494673],[-55.054492,47.495282],[-55.062597,47.491023],[-55.0689,47.496499],[-55.081057,47.487372],[-55.097716,47.489502],[-55.111224,47.488893],[-55.133286,47.481895],[-55.139139,47.475504],[-55.154447,47.471244],[-55.173151,47.471548],[-55.197915,47.456937],[-55.234385,47.428313],[-55.26275,47.412471],[-55.283462,47.399673],[-55.293249,47.387287],[-55.300903,47.333914],[-55.31306,47.287817],[-55.31351,47.269795],[-55.327918,47.269183],[-55.333772,47.264207],[-55.345478,47.24312],[-55.373844,47.23028],[-55.381783,47.219918],[-55.407974,47.220465],[-55.416271,47.218007],[-55.464555,47.186765],[-55.50824,47.146122],[-55.666888,47.102318],[-55.774952,47.111708],[-55.876118,47.072574],[-55.977284,46.991082],[-55.98878,46.962845],[-55.972686,46.907896],[-55.863956,46.877264],[-55.819918,46.860328],[-55.74966,46.85918],[-55.6301,46.879615],[-55.482949,46.925172],[-55.489847,46.884329],[-55.472196,46.875382],[-55.384082,46.878043],[-55.29901,46.903183],[-55.252003,46.926159],[-55.218537,46.965983],[-55.176771,47.008804],[-55.153834,46.993787],[-55.126568,47.050646],[-55.102456,47.06008],[-55.073657,47.094691],[-55.06431,47.149324],[-55.029618,47.166472],[-55.015856,47.187052],[-55.052814,47.214959],[-54.970041,47.277392],[-54.861977,47.338194],[-54.730921,47.358445],[-54.634353,47.391143],[-54.608499,47.361972],[-54.595266,47.347542],[-54.510194,47.366232],[-54.453314,47.4137],[-54.407429,47.45405],[-54.432666,47.472146],[-54.429607,47.500053],[-54.437254,47.505219],[-54.395193,47.543434],[-54.337836,47.630089],[-54.342425,47.634727],[-54.321777,47.640396],[-54.318718,47.662033],[-54.336307,47.673363],[-54.308776,47.688809],[-54.295505,47.684312],[-54.277436,47.703603],[-54.260613,47.715342],[-54.24566,47.746354],[-54.215753,47.775673],[-54.204672,47.798821],[-54.197684,47.826313],[-54.192112,47.843685],[-54.191997,47.853079],[-54.191997,47.85708],[-54.1896,47.856834],[-54.187088,47.861873],[-54.17704,47.872995],[-54.167225,47.859158],[-54.152926,47.845355],[-54.121466,47.828755],[-54.098529,47.820208],[-54.093633,47.826732],[-54.089625,47.832895],[-54.094146,47.840988],[-54.096658,47.858856],[-54.081171,47.880248],[-54.078679,47.845552],[-54.066841,47.834679],[-54.07681,47.81167],[-54.064003,47.802196],[-54.059984,47.796797],[-54.044411,47.793675],[-54.002209,47.831883],[-53.978366,47.859768]]]}},{"type":"Feature","properties":{},"geometry":{"type":"Polygon","coordinates":[[[-54.170666,47.848307],[-54.176744,47.849847],[-54.179496,47.848153],[-54.181331,47.843073],[-54.189323,47.834195],[-54.188436,47.826793],[-54.194899,47.818198],[-54.191984,47.799216],[-54.192745,47.793427],[-54.182479,47.797428],[-54.172086,47.797684],[-54.168284,47.793682],[-54.171453,47.794704],[-54.172086,47.792575],[-54.167017,47.788829],[-54.154976,47.794959],[-54.152315,47.799387],[-54.142556,47.805005],[-54.142302,47.810878],[-54.134445,47.820496],[-54.136853,47.822538],[-54.139514,47.821687],[-54.14319,47.8239],[-54.140275,47.831302],[-54.142809,47.831983],[-54.143316,47.835726],[-54.149907,47.835046],[-54.152061,47.835641],[-54.151935,47.837343],[-54.153075,47.839044],[-54.155438,47.838965],[-54.165988,47.841663],[-54.170666,47.848307]]]}}]}