{"type":"FeatureCollection","features":[{"type":"Feature","properties":{},"geometry":{"type":"Polygon","coordinates":[[[-57.734199,48.256155],[-54.419849,48.126466],[-54.221568,48.765599],[-54.219753,48.767803],[-54.216458,48.768661],[-54.20953,48.778982],[-54.190212,48.787832],[-54.13919,48.799568],[-54.108689,48.814733],[-54.051042,48.816267],[-54.008868,48.818942],[-54.000052,48.822897],[-53.991316,48.82985],[-53.981983,48.842197],[-53.973304,48.853867],[-53.957428,48.865678],[-53.849479,48.870412],[-53.801204,48.882206],[-53.717068,48.914546],[-53.655591,48.925404],[-53.647321,48.930879],[-53.605715,49.034922],[-53.558744,49.063397],[-53.542318,49.14648],[-53.486205,49.196523],[-53.474342,49.21906],[-53.465413,49.25077],[-53.478912,49.273874],[-53.509849,49.280529],[-53.594857,49.333694],[-53.678243,49.356629],[-53.717579,49.372707],[-53.74252,49.383298],[-53.778663,49.39537],[-53.792835,49.398715],[-53.815922,49.397446],[-53.823015,49.401684],[-53.836887,49.405943],[-53.855607,49.408938],[-53.881836,49.422325],[-53.898501,49.435925],[-53.940185,49.455148],[-53.957947,49.459933],[-54.006122,49.471821],[-54.066664,49.477264],[-54.000497,49.648376],[-53.990892,49.663599],[-54.051827,49.699384],[-54.118266,49.747684],[-54.163603,49.754639],[-54.25348,49.726901],[-54.291354,49.723449],[-54.42451,49.684002],[-54.515155,49.699384],[-54.693603,49.661904],[-54.747944,49.687414],[-54.807124,49.689121],[-54.809467,49.606444],[-54.855656,49.603112],[-54.904555,49.603112],[-54.976241,49.566672],[-55.071409,49.538781],[-55.161579,49.540415],[-55.27797,49.542501],[-55.32758,49.535918],[-55.413043,49.5166],[-55.469619,49.512174],[-55.550202,49.465918],[-55.560428,49.535238],[-55.584493,49.595648],[-55.673098,49.62444],[-55.775844,49.646913],[-55.837192,49.672683],[-55.913484,49.714754],[-56.012555,49.734253],[-55.980463,49.733601],[-55.955331,49.738264],[-55.924532,49.747396],[-55.885695,49.765413],[-55.734345,49.819358],[-55.686972,49.832467],[-55.642328,49.854485],[-55.542498,49.908791],[-55.494075,49.927295],[-55.474136,49.968876],[-55.51994,50.006069],[-55.581262,49.984825],[-55.650343,49.975065],[-55.696631,49.978315],[-55.738626,49.934703],[-55.787612,49.950789],[-55.85409,49.984825],[-55.883669,50.012634],[-55.912814,50.030752],[-55.952662,50.034056],[-55.971173,50.032404],[-55.995401,49.988084],[-56.010692,50.00443],[-56.015151,50.0291],[-56.068452,50.075641],[-56.098748,50.121134],[-56.13739,50.151804],[-56.15675,50.155228],[-56.213146,50.129625],[-56.276158,50.067283],[-56.341141,50.0291],[-56.352571,49.994613],[-56.392472,49.966953],[-56.410735,49.920293],[-56.474758,49.905945],[-56.572962,49.85543],[-56.630511,49.801058],[-56.671477,49.747582],[-56.782369,49.630187],[-56.827924,49.575013],[-56.841353,49.556748],[-56.849175,49.551799],[-56.858584,49.545201],[-56.865016,49.543032],[-57.734199,48.256155]]]}}]}