{"type":"FeatureCollection","features":[{"type":"Feature","properties":{},"geometry":{"type":"Polygon","coordinates":[[[-57.115701,51.416364],[-57.006941,51.408529],[-56.930298,51.420906],[-56.862993,51.462394],[-56.825758,51.477769],[-56.691943,51.604867],[-56.2283,51.781099],[-55.936269,51.923883],[-55.707838,52.086189],[-55.627397,52.256117],[-55.635592,52.435338],[-55.782856,52.706279],[-55.796481,53.011065],[-55.722949,53.095743],[-55.768349,53.217761],[-55.756904,53.525871],[-56.333817,53.636395],[-56.351084,53.819563],[-56.891906,53.851316],[-56.989921,53.868171],[-57.121827,53.854758],[-57.186494,53.964397],[-57.337305,54.134943],[-57.529397,54.237875],[-57.913793,54.297435],[-58.128709,54.357475],[-57.625364,54.366702],[-57.335706,54.448832],[-57.066144,54.468938],[-57.150809,54.582164],[-57.95412,54.911174],[-58.410941,54.900334],[-58.658801,54.981581],[-59.144665,55.232458],[-59.783756,55.292345],[-59.996053,55.411511],[-60.321226,55.849493],[-61.016107,56.140432],[-61.301489,56.257923],[-61.131244,56.493588],[-60.996272,56.656795],[-60.998986,56.866441],[-61.168488,56.979636],[-61.387235,57.128752],[-61.445956,57.514886],[-61.654225,57.647285],[-61.633519,57.899904],[-62.477611,58.16988],[-62.569051,58.479476],[-62.83323,58.726465],[-63.393611,59.269924],[-64.255415,60.185475],[-64.61141,60.703204],[-64.855018,60.444635],[-64.944835,60.197116],[-64.928151,60.048949],[-64.815342,59.812046],[-64.971862,59.6357],[-64.684708,59.43655],[-64.544208,59.135607],[-64.84382,59.075176],[-64.909327,58.927891],[-64.473775,58.879904],[-64.206577,58.753987],[-64.247184,58.578066],[-64.050286,58.485973],[-64.34159,58.368881],[-64.448656,58.188384],[-64.438431,58.062674],[-64.268457,58.044864],[-64.071436,57.76832],[-64.006589,57.789009],[-63.787885,57.584388],[-63.871169,57.319192],[-63.86587,57.199389],[-63.910599,57.086807],[-63.92711,57.001471],[-64.142467,56.706962],[-63.926989,56.474899],[-64.101812,56.449363],[-64.165631,56.418784],[-64.052618,56.186671],[-64.03092,56.077097],[-63.494722,56.027593],[-63.815148,55.929149],[-63.810262,55.885092],[-63.688589,55.667044],[-63.817014,55.45631],[-63.666544,55.073659],[-63.798892,54.944723],[-64.000095,54.941396],[-64.04994,54.786789],[-63.944088,54.653494],[-64.155532,54.711949],[-64.25893,54.779057],[-64.649129,54.886291],[-64.802132,54.738008],[-64.803409,54.804553],[-64.837475,54.93511],[-65.374277,54.956324],[-65.682287,54.793678],[-65.689101,54.725176],[-65.766887,54.805858],[-65.803588,54.879027],[-65.919423,54.96763],[-66.322878,55.08768],[-66.773096,55.448404],[-66.811579,54.956011],[-66.74253,54.810182],[-67.265245,55.159704],[-67.575018,55.057476],[-67.217614,54.680088],[-67.537198,54.591672],[-67.846795,54.442642],[-68.100042,54.230615],[-67.944673,54.062766],[-68.097838,53.978485],[-68.026416,53.854151],[-67.745471,53.624252],[-67.606717,53.541739],[-67.466191,53.415823],[-67.145186,53.377804],[-67.024395,53.2526],[-67.103535,53.197123],[-67.258237,53.212073],[-67.34647,53.144257],[-67.442275,52.932291],[-67.368915,52.749444],[-66.993481,52.680093],[-66.864699,52.564746],[-66.71505,52.571708],[-66.649987,52.699461],[-66.622665,52.817989],[-66.491122,52.840555],[-66.473066,52.908767],[-66.365247,52.879603],[-66.339758,52.805041],[-66.366681,52.762024],[-66.390705,52.710883],[-66.330341,52.655224],[-66.354092,52.563065],[-66.331924,52.456985],[-66.418087,52.387846],[-66.487297,52.344736],[-66.470014,52.286954],[-66.461456,52.198545],[-66.233992,52.040026],[-66.167903,52.083046],[-66.212073,52.177558],[-66.015729,52.065755],[-66.068833,52.023462],[-66.063956,51.841067],[-66.004794,51.946673],[-65.899521,51.99103],[-65.636405,51.994217],[-65.52723,51.93529],[-65.389142,51.956682],[-65.253375,51.890988],[-65.292104,51.842274],[-65.249461,51.781241],[-65.144882,51.777514],[-65.045904,51.695568],[-64.891222,51.693645],[-64.795263,51.720493],[-64.644382,51.679343],[-64.611468,51.586196],[-64.44255,51.578277],[-64.254723,51.646216],[-64.209991,51.732758],[-64.235353,51.966203],[-64.188361,52.046472],[-64.141066,52.127081],[-64.16511,52.237823],[-64.092078,52.384389],[-64.185028,52.568095],[-64.117461,52.684551],[-63.820973,52.733673],[-63.663466,52.745915],[-63.5644,52.855577],[-63.564496,52.715508],[-63.45423,52.693575],[-63.401407,52.621303],[-63.608988,52.675746],[-63.90055,52.631509],[-64.09284,52.50977],[-64.074814,52.426755],[-63.936898,52.332528],[-63.742028,52.230221],[-63.70845,52.13583],[-63.656563,52.030305],[-63.754387,52.0803],[-63.836869,52.085306],[-63.844682,52.016892],[-63.708418,51.966039],[-57.10844,51.997753],[-57.115701,51.416364]]]}}]}