{"type":"FeatureCollection","features":[{"type":"Feature","geometry":{"type":"Polygon","coordinates":[[[-57.06913,49.249338],[-56.815721,49.619317],[-56.784739,49.697775],[-56.743161,49.886646],[-56.728173,49.956329],[-56.742608,49.964876],[-56.599551,50.13371],[-56.511142,50.222086],[-56.405851,50.376807],[-56.254606,50.524582],[-56.126679,50.636859],[-55.963959,50.851424],[-55.881665,50.861052],[-55.823439,50.921897],[-55.774383,51.035778],[-55.709862,51.102016],[-55.66532,51.221063],[-55.832552,51.246318],[-55.90971,51.237103],[-55.935747,51.277689],[-56.026221,51.30593],[-55.885624,51.329723],[-55.59792,51.294122],[-55.58324,51.313525],[-55.583084,51.335342],[-55.510151,51.361411],[-55.498026,51.374563],[-55.474915,51.437354],[-55.465193,51.48271],[-55.43325,51.509509],[-55.429438,51.551961],[-55.413988,51.603071],[-55.42839,51.64045],[-55.577574,51.641592],[-55.649984,51.613206],[-55.74355,51.588511],[-55.762573,51.561871],[-55.715469,51.503048],[-55.73311,51.498751],[-55.827629,51.507353],[-55.87773,51.500899],[-55.861325,51.55306],[-55.821626,51.612077],[-55.846015,51.618855],[-55.899758,51.628792],[-55.99728,51.596445],[-56.009173,51.589317],[-56.201634,51.514589],[-56.339683,51.463442],[-56.437957,51.414505],[-56.47396,51.41891],[-56.599867,51.3839],[-56.704941,51.336628],[-56.745164,51.315466],[-56.806356,51.242944],[-56.846721,51.171755],[-56.876079,51.121065],[-56.988718,51.052812],[-57.100958,51.018194],[-57.315838,50.829564],[-57.369607,50.721759],[-57.41061,50.707076],[-57.40804,50.694725],[-57.314311,50.643775],[-57.339348,50.617635],[-57.377865,50.603599],[-57.393161,50.569416],[-57.483123,50.474961],[-57.53923,50.358216],[-57.60703,50.212578],[-57.611274,50.207155],[-57.611498,50.205921],[-57.609596,50.197498],[-57.617388,50.185914],[-57.620184,50.181686],[-57.612322,50.168773],[-57.623826,50.161271],[-57.647247,50.146483],[-57.653753,50.136573],[-57.659128,50.129497],[-57.662677,50.12578],[-57.663754,50.121541],[-57.667347,50.110296],[-57.676238,50.100595],[-57.68017,50.096693],[-57.684811,50.091573],[-57.690287,50.08422],[-57.699595,50.071351],[-57.710757,50.045268],[-57.7117,50.036991],[-57.712854,50.035636],[-57.713099,50.034272],[-57.712432,50.0335],[-57.916086,49.763199],[-58.031314,49.539388],[-58.21136,49.431781],[-58.258172,49.314549],[-58.224666,49.250759],[-57.06913,49.249338]]]},"properties":{}}]}