{"type":"FeatureCollection","features":[{"type":"Feature","geometry":{"type":"Polygon","coordinates":[[[-57.736379,48.256907],[-57.070243,49.247059],[-58.224487,49.250029],[-58.225338,49.246029],[-58.224321,49.243971],[-58.215675,49.236201],[-58.20294,49.228814],[-58.175365,49.233468],[-58.146311,49.226579],[-58.135156,49.229252],[-58.122755,49.225123],[-58.095521,49.215753],[-58.066828,49.210511],[-57.987944,49.197379],[-58.001736,49.188397],[-58.005588,49.178132],[-58.034035,49.174257],[-58.077298,49.178713],[-58.117047,49.184607],[-58.143575,49.133426],[-58.230068,49.114082],[-58.367333,49.147381],[-58.403013,49.132741],[-58.428333,49.108388],[-58.452953,49.054918],[-58.49793,49.009406],[-58.613112,48.808308],[-58.647329,48.75739],[-58.686726,48.68633],[-58.776926,48.779696],[-58.923556,48.700574],[-59.101377,48.625196],[-59.162919,48.587317],[-59.234672,48.559962],[-59.271602,48.470195],[-59.247289,48.463433],[-59.005986,48.510042],[-58.936166,48.505453],[-58.539135,48.51349],[-58.533378,48.500873],[-58.534242,48.447733],[-58.592676,48.425491],[-58.680282,48.36867],[-59.26998,48.000453],[-59.399346,47.924414],[-59.414521,47.897778],[-59.405695,47.876911],[-59.37931,47.836823],[-59.330766,47.823974],[-59.335013,47.768097],[-59.310672,47.75047],[-59.313754,47.631906],[-59.312553,47.62118],[-59.296675,47.62118],[-59.272734,47.627024],[-59.229951,47.58645],[-59.224959,47.578809],[-59.191655,47.56372],[-59.128001,47.563198],[-59.03431,47.568424],[-58.994679,47.569997],[-58.69731,47.599246],[-58.635013,47.614701],[-58.586128,47.622831],[-58.433898,47.639001],[-58.424455,47.64068],[-58.408905,47.649814],[-57.736379,48.256907]]]},"properties":{}}]}