{"type":"FeatureCollection","features":[{"type":"Feature","properties":{},"geometry":{"type":"Polygon","coordinates":[[[-57.734354,48.255835],[-58.284871,47.75812],[-58.318282,47.729336],[-58.343987,47.68605],[-58.361844,47.652157],[-58.348777,47.650999],[-58.338641,47.649843],[-58.272608,47.663435],[-58.221614,47.654866],[-58.145232,47.679242],[-58.089845,47.673676],[-58.036069,47.67328],[-57.995414,47.663827],[-57.96849,47.660309],[-57.910971,47.652157],[-57.88172,47.645999],[-57.834376,47.632685],[-57.785972,47.620325],[-57.771602,47.622635],[-57.754287,47.634288],[-57.707246,47.63908],[-57.701255,47.630387],[-57.67477,47.601452],[-57.660932,47.596444],[-57.64248,47.579138],[-57.597776,47.592706],[-57.553552,47.623922],[-57.504375,47.625211],[-57.474803,47.628658],[-57.442026,47.632118],[-57.405166,47.616226],[-57.381626,47.601871],[-57.343769,47.590637],[-57.331056,47.584868],[-57.285228,47.586101],[-57.229927,47.595494],[-57.20557,47.597171],[-57.180973,47.597171],[-57.140606,47.576658],[-57.117048,47.572112],[-57.095287,47.573408],[-57.08045,47.574381],[-57.050755,47.581564],[-57.010329,47.591818],[-56.94672,47.571788],[-56.93609,47.56535],[-56.902686,47.558022],[-56.903582,47.540824],[-56.902255,47.540516],[-56.881681,47.53836],[-56.862108,47.529505],[-56.846677,47.529412],[-56.806602,47.531482],[-56.783755,47.540176],[-56.75246,47.549337],[-56.716805,47.567302],[-56.683217,47.578305],[-56.662253,47.578305],[-56.647076,47.584681],[-56.623593,47.615375],[-56.599655,47.613614],[-56.539439,47.612559],[-56.440752,47.602792],[-56.411724,47.601966],[-56.383493,47.603536],[-56.358032,47.610169],[-56.335902,47.621055],[-56.315393,47.628195],[-56.298875,47.622347],[-56.209448,47.61623],[-56.20214,47.616871],[-56.178757,47.620409],[-56.159659,47.626318],[-56.142883,47.647837],[-56.11345,47.649743],[-56.102204,47.630318],[-56.069732,47.615974],[-56.029021,47.613565],[-56.016749,47.609668],[-55.915355,47.597829],[-55.900516,47.583625],[-55.960014,47.572419],[-55.969188,47.567142],[-55.975846,47.553379],[-56.084802,47.529625],[-56.102439,47.527009],[-56.140977,47.522096],[-56.169551,47.515795],[-56.18626,47.506463],[-56.202265,47.493405],[-56.203402,47.476405],[-56.197289,47.480939],[-56.169061,47.486487],[-56.129617,47.466475],[-56.11735,47.463937],[-56.094114,47.472543],[-56.06886,47.477374],[-56.028158,47.494172],[-55.985149,47.496968],[-55.958042,47.503056],[-55.896705,47.511553],[-55.93193,47.451467],[-55.938909,47.43957],[-55.93012,47.436076],[-55.925015,47.440884],[-55.893098,47.458146],[-55.875612,47.465777],[-55.83714,47.458146],[-55.813751,47.455914],[-55.779418,47.449694],[-55.754045,47.457281],[-55.730367,47.465762],[-55.6849,47.485588],[-55.669961,47.4311],[-55.655141,47.407293],[-55.651516,47.404513],[-55.641803,47.407293],[-55.591811,47.436849],[-55.571746,47.438086],[-55.545108,47.442637],[-55.507025,47.44763],[-55.498625,47.449719],[-55.491247,47.455173],[-55.435748,47.469754],[-55.410666,47.4767],[-55.356171,47.522335],[-55.348315,47.537737],[-55.35461,47.564023],[-55.342639,47.630976],[-55.28389,47.642104],[-55.249118,47.63221],[-55.215795,47.626046],[-55.167876,47.614988],[-55.143245,47.580896],[-55.125063,47.578478],[-55.075698,47.583316],[-55.032614,47.590589],[-54.981908,47.591803],[-54.96114,47.597069],[-54.934502,47.60844],[-54.885001,47.625093],[-54.875666,47.630235],[-54.852227,47.641646],[-54.82156,47.651266],[-54.797957,47.657139],[-54.792119,47.66034],[-54.772518,47.666563],[-54.759305,47.669741],[-54.734046,47.678125],[-54.724343,47.6665],[-54.719322,47.668464],[-54.705664,47.671635],[-54.421699,48.124267],[-54.420132,48.125833],[-57.734354,48.255835]]]}}]}